{
"type": "FeatureCollection",
"name": "gf2021_pts",
"crs": { "type": "name", "properties": { "name": "urn:ogc:def:crs:EPSG::32618" } },
"features": [
{ "type": "Feature", "properties": { "site": 1, "transect": 1.1 }, "geometry": { "type": "Point", "coordinates": [ 424089.949256094056182, 5019019.379502239637077 ] } },
{ "type": "Feature", "properties": { "site": 1, "transect": 1.2 }, "geometry": { "type": "Point", "coordinates": [ 423778.405602406710386, 5018726.617454793304205 ] } },
{ "type": "Feature", "properties": { "site": 1, "transect": 1.3 }, "geometry": { "type": "Point", "coordinates": [ 423777.793661950563546, 5018723.58821611572057 ] } },
{ "type": "Feature", "properties": { "site": 1, "transect": 1.4 }, "geometry": { "type": "Point", "coordinates": [ 423988.179423607536592, 5018722.024694699794054 ] } },
{ "type": "Feature", "properties": { "site": 2, "transect": 2.1 }, "geometry": { "type": "Point", "coordinates": [ 451911.902064582274761, 5009061.847530745901167 ] } },
{ "type": "Feature", "properties": { "site": 2, "transect": 2.2 }, "geometry": { "type": "Point", "coordinates": [ 452013.959195427480154, 5009122.519772339612246 ] } },
{ "type": "Feature", "properties": { "site": 2, "transect": 2.3 }, "geometry": { "type": "Point", "coordinates": [ 451833.344839826633688, 5009019.833772604353726 ] } },
{ "type": "Feature", "properties": { "site": 2, "transect": 2.4 }, "geometry": { "type": "Point", "coordinates": [ 451998.049805355840363, 5009102.614861198700964 ] } },
{ "type": "Feature", "properties": { "site": 2, "transect": 2.5 }, "geometry": { "type": "Point", "coordinates": [ 451895.440706346649677, 5009066.694197344593704 ] } },
{ "type": "Feature", "properties": { "site": 2, "transect": 2.6 }, "geometry": { "type": "Point", "coordinates": [ 451900.577675518463366, 5009069.173785045742989 ] } },
{ "type": "Feature", "properties": { "site": 3, "transect": 3.1 }, "geometry": { "type": "Point", "coordinates": [ 375827.785098933847621, 5040937.903013350442052 ] } },
{ "type": "Feature", "properties": { "site": 3, "transect": 3.2 }, "geometry": { "type": "Point", "coordinates": [ 376075.066768546646927, 5040918.869639378041029 ] } },
{ "type": "Feature", "properties": { "site": 3, "transect": 3.3 }, "geometry": { "type": "Point", "coordinates": [ 376075.066768546646927, 5040918.869639378041029 ] } },
{ "type": "Feature", "properties": { "site": 3, "transect": 3.4 }, "geometry": { "type": "Point", "coordinates": [ 375745.050898205197882, 5041075.873906247317791 ] } },
{ "type": "Feature", "properties": { "site": 3, "transect": 3.5 }, "geometry": { "type": "Point", "coordinates": [ 375963.324551838450134, 5041011.444254434667528 ] } },
{ "type": "Feature", "properties": { "site": 3, "transect": 3.6 }, "geometry": { "type": "Point", "coordinates": [ 375963.324551838450134, 5041011.444254434667528 ] } },
{ "type": "Feature", "properties": { "site": 4, "transect": 4.1 }, "geometry": { "type": "Point", "coordinates": [ 480607.318825683847535, 5004933.273108070716262 ] } },
{ "type": "Feature", "properties": { "site": 4, "transect": 4.2 }, "geometry": { "type": "Point", "coordinates": [ 480307.934188283747062, 5004795.921290937811136 ] } },
{ "type": "Feature", "properties": { "site": 4, "transect": 4.3 }, "geometry": { "type": "Point", "coordinates": [ 480925.403074088215362, 5004746.460194014012814 ] } },
{ "type": "Feature", "properties": { "site": 4, "transect": 4.4 }, "geometry": { "type": "Point", "coordinates": [ 480664.699018170009367, 5004971.985750999301672 ] } },
{ "type": "Feature", "properties": { "site": 4, "transect": 4.5 }, "geometry": { "type": "Point", "coordinates": [ 480559.316901327576488, 5004744.87103508412838 ] } },
{ "type": "Feature", "properties": { "site": 5, "transect": 5.1 }, "geometry": { "type": "Point", "coordinates": [ 465481.411161264113616, 5049020.394840496592224 ] } },
{ "type": "Feature", "properties": { "site": 5, "transect": 5.2 }, "geometry": { "type": "Point", "coordinates": [ 465289.480707928712945, 5048801.363324037753046 ] } },
{ "type": "Feature", "properties": { "site": 5, "transect": 5.3 }, "geometry": { "type": "Point", "coordinates": [ 465285.057169890846126, 5048828.764574501663446 ] } },
{ "type": "Feature", "properties": { "site": 5, "transect": 5.4 }, "geometry": { "type": "Point", "coordinates": [ 465286.317903604882304, 5048790.149548086337745 ] } },
{ "type": "Feature", "properties": { "site": 6, "transect": 6.1 }, "geometry": { "type": "Point", "coordinates": [ 484815.320447940612212, 5037412.026769702322781 ] } },
{ "type": "Feature", "properties": { "site": 6, "transect": 6.2 }, "geometry": { "type": "Point", "coordinates": [ 484844.971566653810441, 5037488.961274089291692 ] } },
{ "type": "Feature", "properties": { "site": 6, "transect": 6.3 }, "geometry": { "type": "Point", "coordinates": [ 484778.266742058913223, 5037660.159585105255246 ] } },
{ "type": "Feature", "properties": { "site": 6, "transect": 6.4 }, "geometry": { "type": "Point", "coordinates": [ 484656.418592090369202, 5037584.747657354921103 ] } },
{ "type": "Feature", "properties": { "site": 7, "transect": 7.1 }, "geometry": { "type": "Point", "coordinates": [ 339374.496701458818279, 5072970.379149129614234 ] } },
{ "type": "Feature", "properties": { "site": 7, "transect": 7.2 }, "geometry": { "type": "Point", "coordinates": [ 339481.391476092045195, 5073111.944846203550696 ] } },
{ "type": "Feature", "properties": { "site": 7, "transect": 7.3 }, "geometry": { "type": "Point", "coordinates": [ 339413.886549036717042, 5073061.595777028240263 ] } },
{ "type": "Feature", "properties": { "site": 7, "transect": 7.4 }, "geometry": { "type": "Point", "coordinates": [ 339604.625261124572717, 5073202.259732727892697 ] } },
{ "type": "Feature", "properties": { "site": 8, "transect": 8.1 }, "geometry": { "type": "Point", "coordinates": [ 425526.1984307198436, 4954105.765819686464965 ] } },
{ "type": "Feature", "properties": { "site": 9, "transect": 9.1 }, "geometry": { "type": "Point", "coordinates": [ 454776.851643096772023, 5030793.983066687360406 ] } },
{ "type": "Feature", "properties": { "site": 9, "transect": 9.2 }, "geometry": { "type": "Point", "coordinates": [ 454436.909196778957266, 5030515.539198934100568 ] } },
{ "type": "Feature", "properties": { "site": 9, "transect": 9.3 }, "geometry": { "type": "Point", "coordinates": [ 454619.365812230855227, 5030702.584058959037066 ] } },
{ "type": "Feature", "properties": { "site": 9, "transect": 9.4 }, "geometry": { "type": "Point", "coordinates": [ 454619.365812230855227, 5030702.584058959037066 ] } },
{ "type": "Feature", "properties": { "site": 10, "transect": 10.1 }, "geometry": { "type": "Point", "coordinates": [ 311232.66203493939247, 5046764.812838904559612 ] } },
{ "type": "Feature", "properties": { "site": 10, "transect": 10.2 }, "geometry": { "type": "Point", "coordinates": [ 311232.66203493939247, 5046764.812838904559612 ] } },
{ "type": "Feature", "properties": { "site": 10, "transect": 10.3 }, "geometry": { "type": "Point", "coordinates": [ 311096.252569667412899, 5046447.363979670219123 ] } },
{ "type": "Feature", "properties": { "site": 10, "transect": 10.4 }, "geometry": { "type": "Point", "coordinates": [ 311096.585188780212775, 5046458.390279234386981 ] } },
{ "type": "Feature", "properties": { "site": 11, "transect": 11.1 }, "geometry": { "type": "Point", "coordinates": [ 420055.847982786712237, 5068599.058116119354963 ] } },
{ "type": "Feature", "properties": { "site": 11, "transect": 11.2 }, "geometry": { "type": "Point", "coordinates": [ 419965.124132663186174, 5068599.641955625265837 ] } },
{ "type": "Feature", "properties": { "site": 11, "transect": 11.3 }, "geometry": { "type": "Point", "coordinates": [ 420017.370661525870673, 5068648.890373821370304 ] } },
{ "type": "Feature", "properties": { "site": 11, "transect": 11.4 }, "geometry": { "type": "Point", "coordinates": [ 420016.681690200639423, 5068526.29695660341531 ] } },
{ "type": "Feature", "properties": { "site": 12, "transect": 12.1 }, "geometry": { "type": "Point", "coordinates": [ 486887.718433759931941, 5009471.298510946333408 ] } },
{ "type": "Feature", "properties": { "site": 12, "transect": 12.2 }, "geometry": { "type": "Point", "coordinates": [ 486625.802612733386923, 5009650.260727689601481 ] } },
{ "type": "Feature", "properties": { "site": 12, "transect": 12.3 }, "geometry": { "type": "Point", "coordinates": [ 487001.764302234048955, 5009644.886472422629595 ] } },
{ "type": "Feature", "properties": { "site": 13, "transect": 13.1 }, "geometry": { "type": "Point", "coordinates": [ 510186.100569806701969, 4998897.518118287436664 ] } },
{ "type": "Feature", "properties": { "site": 13, "transect": 13.2 }, "geometry": { "type": "Point", "coordinates": [ 510206.991546117526013, 4999065.595909362658858 ] } },
{ "type": "Feature", "properties": { "site": 13, "transect": 13.3 }, "geometry": { "type": "Point", "coordinates": [ 510091.019901424529962, 4998984.769021216779947 ] } },
{ "type": "Feature", "properties": { "site": 14, "transect": 14.1 }, "geometry": { "type": "Point", "coordinates": [ 448813.112835026287939, 5004211.500371019355953 ] } },
{ "type": "Feature", "properties": { "site": 14, "transect": 14.2 }, "geometry": { "type": "Point", "coordinates": [ 448262.055950493144337, 5004155.494160602800548 ] } },
{ "type": "Feature", "properties": { "site": 14, "transect": 14.3 }, "geometry": { "type": "Point", "coordinates": [ 449253.886148936289828, 5004470.808536314405501 ] } },
{ "type": "Feature", "properties": { "site": 14, "transect": 14.4 }, "geometry": { "type": "Point", "coordinates": [ 448532.502366331522353, 5004237.370211380533874 ] } },
{ "type": "Feature", "properties": { "site": 15, "transect": 15.1 }, "geometry": { "type": "Point", "coordinates": [ 347072.82781097793486, 5031923.533160698600113 ] } },
{ "type": "Feature", "properties": { "site": 15, "transect": 15.2 }, "geometry": { "type": "Point", "coordinates": [ 347183.545607445237692, 5032194.778090464882553 ] } },
{ "type": "Feature", "properties": { "site": 15, "transect": 15.3 }, "geometry": { "type": "Point", "coordinates": [ 347094.525089100934565, 5032243.99028950650245 ] } },
{ "type": "Feature", "properties": { "site": 15, "transect": 15.4 }, "geometry": { "type": "Point", "coordinates": [ 347141.327521510538645, 5032118.820975803770125 ] } },
{ "type": "Feature", "properties": { "site": 15, "transect": 15.5 }, "geometry": { "type": "Point", "coordinates": [ 347020.697404938866384, 5032112.356286150403321 ] } },
{ "type": "Feature", "properties": { "site": 15, "transect": 15.6 }, "geometry": { "type": "Point", "coordinates": [ 347049.231065354659222, 5031993.868959991261363 ] } },
{ "type": "Feature", "properties": { "site": 15, "transect": 15.7 }, "geometry": { "type": "Point", "coordinates": [ 347049.231065354659222, 5031993.868959991261363 ] } },
{ "type": "Feature", "properties": { "site": 16, "transect": 16.1 }, "geometry": { "type": "Point", "coordinates": [ 304253.096442270267289, 5043034.447467065416276 ] } },
{ "type": "Feature", "properties": { "site": 17, "transect": 17.1 }, "geometry": { "type": "Point", "coordinates": [ 396959.323738540289924, 5027413.775410526432097 ] } },
{ "type": "Feature", "properties": { "site": 17, "transect": 17.2 }, "geometry": { "type": "Point", "coordinates": [ 397270.302525686565787, 5027490.093987349420786 ] } },
{ "type": "Feature", "properties": { "site": 17, "transect": 17.3 }, "geometry": { "type": "Point", "coordinates": [ 397303.030856579192914, 5027444.692741548642516 ] } },
{ "type": "Feature", "properties": { "site": 17, "transect": 17.4 }, "geometry": { "type": "Point", "coordinates": [ 397473.917358592327219, 5027303.680326510220766 ] } },
{ "type": "Feature", "properties": { "site": 17, "transect": 17.5 }, "geometry": { "type": "Point", "coordinates": [ 397170.09108543448383, 5027377.512481899000704 ] } },
{ "type": "Feature", "properties": { "site": 17, "transect": 17.6 }, "geometry": { "type": "Point", "coordinates": [ 397139.270831479574554, 5027294.968135744333267 ] } },
{ "type": "Feature", "properties": { "site": 18, "transect": 18.1 }, "geometry": { "type": "Point", "coordinates": [ 465229.404690052499063, 5010519.623023215681314 ] } },
{ "type": "Feature", "properties": { "site": 18, "transect": 18.2 }, "geometry": { "type": "Point", "coordinates": [ 465435.701729586173315, 5010560.449746504426003 ] } },
{ "type": "Feature", "properties": { "site": 19, "transect": 19.1 }, "geometry": { "type": "Point", "coordinates": [ 456173.822071194590535, 5026783.597757807001472 ] } },
{ "type": "Feature", "properties": { "site": 19, "transect": 19.2 }, "geometry": { "type": "Point", "coordinates": [ 456173.822071194590535, 5026783.597757807001472 ] } },
{ "type": "Feature", "properties": { "site": 19, "transect": 19.3 }, "geometry": { "type": "Point", "coordinates": [ 456270.590377253829502, 5026877.091635821387172 ] } },
{ "type": "Feature", "properties": { "site": 20, "transect": 20.1 }, "geometry": { "type": "Point", "coordinates": [ 431787.113412246399093, 5022979.894434927031398 ] } },
{ "type": "Feature", "properties": { "site": 20, "transect": 20.2 }, "geometry": { "type": "Point", "coordinates": [ 431640.871001275489107, 5023173.767792743630707 ] } },
{ "type": "Feature", "properties": { "site": 20, "transect": 20.3 }, "geometry": { "type": "Point", "coordinates": [ 431655.191024984116666, 5023098.337436094880104 ] } },
{ "type": "Feature", "properties": { "site": 20, "transect": 20.4 }, "geometry": { "type": "Point", "coordinates": [ 431644.513432463339996, 5023172.542797148227692 ] } },
{ "type": "Feature", "properties": { "site": 21, "transect": 21.1 }, "geometry": { "type": "Point", "coordinates": [ 420694.115269278001506, 5056703.750520440749824 ] } },
{ "type": "Feature", "properties": { "site": 21, "transect": 21.2 }, "geometry": { "type": "Point", "coordinates": [ 420723.461961422290187, 5056335.476862846873701 ] } },
{ "type": "Feature", "properties": { "site": 21, "transect": 21.3 }, "geometry": { "type": "Point", "coordinates": [ 420527.043712217768189, 5056634.279376052320004 ] } },
{ "type": "Feature", "properties": { "site": 21, "transect": 21.4 }, "geometry": { "type": "Point", "coordinates": [ 420552.2428881888045, 5056566.343333811499178 ] } },
{ "type": "Feature", "properties": { "site": 21, "transect": 21.5 }, "geometry": { "type": "Point", "coordinates": [ 420552.2428881888045, 5056566.343333811499178 ] } },
{ "type": "Feature", "properties": { "site": 22, "transect": 22.1 }, "geometry": { "type": "Point", "coordinates": [ 402772.792654065880924, 4918996.619773741811514 ] } },
{ "type": "Feature", "properties": { "site": 22, "transect": 22.2 }, "geometry": { "type": "Point", "coordinates": [ 402772.792654065880924, 4918996.619773741811514 ] } },
{ "type": "Feature", "properties": { "site": 22, "transect": 22.3 }, "geometry": { "type": "Point", "coordinates": [ 402757.123324631247669, 4919645.55632474180311 ] } },
{ "type": "Feature", "properties": { "site": 22, "transect": 22.4 }, "geometry": { "type": "Point", "coordinates": [ 402873.856796716223471, 4919397.040149241685867 ] } },
{ "type": "Feature", "properties": { "site": 22, "transect": 22.5 }, "geometry": { "type": "Point", "coordinates": [ 402811.683370939979795, 4918882.567504405044019 ] } },
{ "type": "Feature", "properties": { "site": 22, "transect": 22.6 }, "geometry": { "type": "Point", "coordinates": [ 402821.636547542351764, 4919403.623856907710433 ] } },
{ "type": "Feature", "properties": { "site": 23, "transect": 23.1 }, "geometry": { "type": "Point", "coordinates": [ 430488.189315239025746, 4958155.799668948166072 ] } },
{ "type": "Feature", "properties": { "site": 23, "transect": 23.2 }, "geometry": { "type": "Point", "coordinates": [ 430475.251413278048858, 4958083.180430570617318 ] } },
{ "type": "Feature", "properties": { "site": 24, "transect": 24.1 }, "geometry": { "type": "Point", "coordinates": [ 425156.962881085346453, 5002055.339749965816736 ] } },
{ "type": "Feature", "properties": { "site": 24, "transect": 24.2 }, "geometry": { "type": "Point", "coordinates": [ 425080.899340347328689, 5002288.726313075982034 ] } },
{ "type": "Feature", "properties": { "site": 24, "transect": 24.3 }, "geometry": { "type": "Point", "coordinates": [ 425231.411622391606215, 5001970.716387028805912 ] } },
{ "type": "Feature", "properties": { "site": 24, "transect": 24.4 }, "geometry": { "type": "Point", "coordinates": [ 425090.831374500354286, 5002219.084494897164404 ] } },
{ "type": "Feature", "properties": { "site": 25, "transect": 25.1 }, "geometry": { "type": "Point", "coordinates": [ 344188.921767609892413, 5055708.863791472278535 ] } },
{ "type": "Feature", "properties": { "site": 25, "transect": 25.2 }, "geometry": { "type": "Point", "coordinates": [ 344188.921767609892413, 5055708.863791472278535 ] } },
{ "type": "Feature", "properties": { "site": 25, "transect": 25.3 }, "geometry": { "type": "Point", "coordinates": [ 344339.214095022412948, 5055800.103011912666261 ] } },
{ "type": "Feature", "properties": { "site": 25, "transect": 25.4 }, "geometry": { "type": "Point", "coordinates": [ 344018.757711793296039, 5055518.245806044898927 ] } },
{ "type": "Feature", "properties": { "site": 25, "transect": 25.5 }, "geometry": { "type": "Point", "coordinates": [ 344018.757711793296039, 5055518.245806044898927 ] } },
{ "type": "Feature", "properties": { "site": 25, "transect": 25.6 }, "geometry": { "type": "Point", "coordinates": [ 344043.318975765956566, 5055491.65127931162715 ] } },
{ "type": "Feature", "properties": { "site": 25, "transect": 25.7 }, "geometry": { "type": "Point", "coordinates": [ 344043.318975765956566, 5055491.65127931162715 ] } },
{ "type": "Feature", "properties": { "site": 26, "transect": 26.1 }, "geometry": { "type": "Point", "coordinates": [ 476171.350824788387399, 5048499.694541798904538 ] } },
{ "type": "Feature", "properties": { "site": 26, "transect": 26.2 }, "geometry": { "type": "Point", "coordinates": [ 476048.55990217521321, 5048383.457976358942688 ] } },
{ "type": "Feature", "properties": { "site": 26, "transect": 26.3 }, "geometry": { "type": "Point", "coordinates": [ 476024.758592368511017, 5048316.400045676156878 ] } },
{ "type": "Feature", "properties": { "site": 26, "transect": 26.4 }, "geometry": { "type": "Point", "coordinates": [ 476086.670041642326396, 5048141.562185348942876 ] } },
{ "type": "Feature", "properties": { "site": 26, "transect": 26.5 }, "geometry": { "type": "Point", "coordinates": [ 476061.23948440735694, 5048150.16749519482255 ] } },
{ "type": "Feature", "properties": { "site": 26, "transect": 26.6 }, "geometry": { "type": "Point", "coordinates": [ 476082.417405921034515, 5048098.804797396995127 ] } },
{ "type": "Feature", "properties": { "site": 27, "transect": 27.1 }, "geometry": { "type": "Point", "coordinates": [ 384521.066028204164468, 5042836.950853999704123 ] } },
{ "type": "Feature", "properties": { "site": 27, "transect": 27.2 }, "geometry": { "type": "Point", "coordinates": [ 384549.048004353884608, 5042889.149935405701399 ] } },
{ "type": "Feature", "properties": { "site": 27, "transect": 27.3 }, "geometry": { "type": "Point", "coordinates": [ 384669.813456047035288, 5042856.197976366616786 ] } },
{ "type": "Feature", "properties": { "site": 27, "transect": 27.4 }, "geometry": { "type": "Point", "coordinates": [ 384669.813456047035288, 5042856.197976366616786 ] } }
]
}
