{
"type": "FeatureCollection",
"name": "hw2025_pts",
"crs": { "type": "name", "properties": { "name": "urn:ogc:def:crs:EPSG::26910" } },
"features": [
{ "type": "Feature", "properties": { "SITE": "BORE", "BOX": 48.0, "TYPE": "CONV", "SITEBOX": "BORE48", "flwpattern": "2h" }, "geometry": { "type": "Point", "coordinates": [ 599974.09548398188781, 4265095.906069189310074 ] } },
{ "type": "Feature", "properties": { "SITE": "BLI", "BOX": 18.0, "TYPE": "CONV", "SITEBOX": "BLI18", "flwpattern": "l" }, "geometry": { "type": "Point", "coordinates": [ 605442.757646083482541, 4271850.980838630348444 ] } },
{ "type": "Feature", "properties": { "SITE": "MEE", "BOX": 86.0, "TYPE": "CONV", "SITEBOX": "MEE86", "flwpattern": "2h" }, "geometry": { "type": "Point", "coordinates": [ 603552.34309771982953, 4268536.488991590216756 ] } },
{ "type": "Feature", "properties": { "SITE": "PAC", "BOX": 64.0, "TYPE": "ORG", "SITEBOX": "PAC64", "flwpattern": "l" }, "geometry": { "type": "Point", "coordinates": [ 605698.099888542084955, 4276797.329172350466251 ] } },
{ "type": "Feature", "properties": { "SITE": "ROM", "BOX": 17.0, "TYPE": "CONV", "SITEBOX": "ROM17", "flwpattern": "2h" }, "geometry": { "type": "Point", "coordinates": [ 587818.457144334795885, 4276809.94350487459451 ] } },
{ "type": "Feature", "properties": { "SITE": "CRPL", "BOX": 68.0, "TYPE": "WILD", "SITEBOX": "CRPL68", "flwpattern": "e" }, "geometry": { "type": "Point", "coordinates": [ 560065.249740936094895, 4306612.078845296055079 ] } },
{ "type": "Feature", "properties": { "SITE": "ECK", "BOX": 104.0, "TYPE": "ORG", "SITEBOX": "ECK104", "flwpattern": "l" }, "geometry": { "type": "Point", "coordinates": [ 605634.14457204437349, 4286897.305312396027148 ] } },
{ "type": "Feature", "properties": { "SITE": "WIN", "BOX": 81.0, "TYPE": "ORG", "SITEBOX": "WIN81", "flwpattern": "e" }, "geometry": { "type": "Point", "coordinates": [ 565563.158704035216942, 4305253.952195962890983 ] } },
{ "type": "Feature", "properties": { "SITE": "SAG", "BOX": 0.0, "TYPE": "CONV", "SITEBOX": "SAG", "flwpattern": "2h" }, "geometry": { "type": "Point", "coordinates": [ 593778.404090728261508, 4281695.703307445161045 ] } },
{ "type": "Feature", "properties": { "SITE": "TER", "BOX": 0.0, "TYPE": "ORG", "SITEBOX": "TER1", "flwpattern": "e" }, "geometry": { "type": "Point", "coordinates": [ 585902.851128802169114, 4260531.019833389669657 ] } },
{ "type": "Feature", "properties": { "SITE": "FUL4", "BOX": 57.0, "TYPE": "ORG", "SITEBOX": "FUL4", "flwpattern": "e" }, "geometry": { "type": "Point", "coordinates": [ 567884.370355476276018, 4301982.486008521169424 ] } },
{ "type": "Feature", "properties": { "SITE": "RIV63", "BOX": 0.0, "TYPE": "ORG", "SITEBOX": "RIV63", "flwpattern": "e" }, "geometry": { "type": "Point", "coordinates": [ 571670.568106275633909, 4295290.881812476553023 ] } },
{ "type": "Feature", "properties": { "SITE": "FUL45", "BOX": 0.0, "TYPE": "ORG", "SITEBOX": "FUL45", "flwpattern": "e" }, "geometry": { "type": "Point", "coordinates": [ 568436.143895489163697, 4299259.137420519255102 ] } },
{ "type": "Feature", "properties": { "SITE": "EAT", "BOX": 0.0, "TYPE": "ORG", "SITEBOX": "EAT", "flwpattern": "l" }, "geometry": { "type": "Point", "coordinates": [ 598416.614909909898415, 4260860.377590331248939 ] } },
{ "type": "Feature", "properties": { "SITE": "TOM", "BOX": 72.0, "TYPE": "WILD", "SITEBOX": "TOM72", "flwpattern": "e" }, "geometry": { "type": "Point", "coordinates": [ 571109.315839785849676, 4297972.497308026067913 ] } },
{ "type": "Feature", "properties": { "SITE": "EVE", "BOX": 0.0, "TYPE": "ORG", "SITEBOX": "EVE", "flwpattern": "2h" }, "geometry": { "type": "Point", "coordinates": [ 590250.800414899364114, 4262611.443496808409691 ] } },
{ "type": "Feature", "properties": { "SITE": "CCNP", "BOX": 0.0, "TYPE": "WILD", "SITEBOX": "CCNP", "flwpattern": "2h" }, "geometry": { "type": "Point", "coordinates": [ 598283.217002974939533, 4282685.913959782570601 ] } },
{ "type": "Feature", "properties": { "SITE": "HATCAP", "BOX": 0.0, "TYPE": "CONV", "SITEBOX": "HATCAP10", "flwpattern": "e" }, "geometry": { "type": "Point", "coordinates": [ 581572.430319806328043, 4284466.455053387209773 ] } },
{ "type": "Feature", "properties": { "SITE": "PER", "BOX": 29.0, "TYPE": "CONV", "SITEBOX": "PER29", "flwpattern": "e" }, "geometry": { "type": "Point", "coordinates": [ 569649.268149150768295, 4296170.169496102258563 ] } },
{ "type": "Feature", "properties": { "SITE": "JOH", "BOX": 0.0, "TYPE": "ORG", "SITEBOX": "JOH", "flwpattern": "e" }, "geometry": { "type": "Point", "coordinates": [ 588461.859517656615935, 4260367.554467220790684 ] } },
{ "type": "Feature", "properties": { "SITE": "SET", "BOX": 0.0, "TYPE": "WILD", "SITEBOX": "SET", "flwpattern": "l" }, "geometry": { "type": "Point", "coordinates": [ 611670.531957294442691, 4286897.993755801580846 ] } },
{ "type": "Feature", "properties": { "SITE": "HOLH", "BOX": 46.0, "TYPE": "CONV", "SITEBOX": "HOLHOME46", "flwpattern": "e" }, "geometry": { "type": "Point", "coordinates": [ 571985.932329036528245, 4291520.859903209842741 ] } },
{ "type": "Feature", "properties": { "SITE": "MUR70", "BOX": 36.0, "TYPE": "WILD", "SITEBOX": "MUR70", "flwpattern": "e" }, "geometry": { "type": "Point", "coordinates": [ 570158.495932390913367, 4292131.285182405263186 ] } },
{ "type": "Feature", "properties": { "SITE": "PIL", "BOX": 62.0, "TYPE": "CONV", "SITEBOX": "PIL62", "flwpattern": "e" }, "geometry": { "type": "Point", "coordinates": [ 573268.686711014830507, 4287558.395282690413296 ] } },
{ "type": "Feature", "properties": { "SITE": "GOO", "BOX": 44063.0, "TYPE": "ORG", "SITEBOX": "GOO4468", "flwpattern": "e" }, "geometry": { "type": "Point", "coordinates": [ 581772.388086426071823, 4290513.891838686540723 ] } },
{ "type": "Feature", "properties": { "SITE": "HAT1485", "BOX": 32.0, "TYPE": "CONV", "SITEBOX": "HAT148532", "flwpattern": "l" }, "geometry": { "type": "Point", "coordinates": [ 583148.318622320657596, 4292577.172014362178743 ] } },
{ "type": "Feature", "properties": { "SITE": "MCNW", "BOX": 53023.0, "TYPE": "WILD", "SITEBOX": "MCNW", "flwpattern": "l" }, "geometry": { "type": "Point", "coordinates": [ 595877.693709259503521, 4265193.041870933026075 ] } },
{ "type": "Feature", "properties": { "SITE": "MCNE", "BOX": 39035.0, "TYPE": "WILD", "SITEBOX": "MCNE", "flwpattern": "l" }, "geometry": { "type": "Point", "coordinates": [ 593809.168549522873946, 4264919.66297649871558 ] } },
{ "type": "Feature", "properties": { "SITE": "BUZ", "BOX": 69.0, "TYPE": "WILD", "SITEBOX": "BUZ69", "flwpattern": "e" }, "geometry": { "type": "Point", "coordinates": [ 584288.367962237563916, 4257701.208320903591812 ] } },
{ "type": "Feature", "properties": { "SITE": "PUT5", "BOX": 34085.0, "TYPE": "WILD", "SITEBOX": "PUT5", "flwpattern": "e" }, "geometry": { "type": "Point", "coordinates": [ 583483.629014247679152, 4262460.072655904106796 ] } },
{ "type": "Feature", "properties": { "SITE": "PUT2", "BOX": 70.0, "TYPE": "WILD", "SITEBOX": "PUT270", "flwpattern": "e" }, "geometry": { "type": "Point", "coordinates": [ 580929.920824823551811, 4263101.072933411225677 ] } },
{ "type": "Feature", "properties": { "SITE": "TER2", "BOX": 66.0, "TYPE": "ORG", "SITEBOX": "TER266", "flwpattern": "e" }, "geometry": { "type": "Point", "coordinates": [ 588772.97998469369486, 4263068.94182260427624 ] } },
{ "type": "Feature", "properties": { "SITE": "DAV", "BOX": 88.0, "TYPE": "WILD", "SITEBOX": "DAV88", "flwpattern": "2h" }, "geometry": { "type": "Point", "coordinates": [ 605110.973663830314763, 4264819.528729569166899 ] } },
{ "type": "Feature", "properties": { "SITE": "EH", "BOX": 47.0, "TYPE": "CONV", "SITEBOX": "EH47", "flwpattern": "l" }, "geometry": { "type": "Point", "coordinates": [ 602807.705461983103305, 4261447.888815029524267 ] } },
{ "type": "Feature", "properties": { "SITE": "BORW", "BOX": 67.0, "TYPE": "CONV", "SITEBOX": "BORW67", "flwpattern": "l" }, "geometry": { "type": "Point", "coordinates": [ 594209.908931552898139, 4263612.812004929408431 ] } }
]
}
