{
"type": "FeatureCollection",
"name": "iverson_pts",
"features": [
{ "type": "Feature", "properties": { "site": "Alf_Ag17 Jensen", "habitat": "Alf", "Ownership": "Private", "GPS_name": "Ag17 Jensen_alfalfa", "date": "25-JUL-16 12:04:25PM", "notes": "", "order_surveyed": 87, "NWI_classification": "", "Notes_NWI": "" }, "geometry": { "type": "Point", "coordinates": [ -77.09047442, 42.84364046 ] } },
{ "type": "Feature", "properties": { "site": "Alf_Ag18 Wickham", "habitat": "Alf", "Ownership": "Private", "GPS_name": "Ag18_Wickham_aprx", "date": "", "notes": "", "order_surveyed": 92, "NWI_classification": "", "Notes_NWI": "" }, "geometry": { "type": "Point", "coordinates": [ -76.756269, 42.351933 ] } },
{ "type": "Feature", "properties": { "site": "Alf_Ag19 Mattoon", "habitat": "Alf", "Ownership": "Private", "GPS_name": "Ag19 MATTON", "date": "10-AGO-16 8:20:14AM", "notes": "", "order_surveyed": 95, "NWI_classification": "", "Notes_NWI": "" }, "geometry": { "type": "Point", "coordinates": [ -76.48921279, 42.66869349 ] } },
{ "type": "Feature", "properties": { "site": "Apple_1 Grismore", "habitat": "Apple", "Ownership": "Private", "GPS_name": "Apple1 Grisamore ", "date": "", "notes": "Mowed pathways, 8\" tall grass. Under apples herbicided. Mostly grass and white clover. Not much in flower.", "order_surveyed": 108, "NWI_classification": "", "Notes_NWI": "" }, "geometry": { "type": "Point", "coordinates": [ -76.471248, 42.655845 ] } },
{ "type": "Feature", "properties": { "site": "Apple_2 Cornell", "habitat": "Apple", "Ownership": "Cornell Farm", "GPS_name": "Apple2 Cornell", "date": "", "notes": "Mowed to 6\", in rows there is a lot of vegetation, especially goldenrod. In alleys mainly grass and quite a few different forbs", "order_surveyed": 109, "NWI_classification": "", "Notes_NWI": "" }, "geometry": { "type": "Point", "coordinates": [ -76.461668, 42.445691 ] } },
{ "type": "Feature", "properties": { "site": "Apple_3 Caldwell", "habitat": "Apple", "Ownership": "Private", "GPS_name": "Apple3 Caldwell", "date": "", "notes": "Ecologically managed farm, maybe organic. Thick understory everywhere, mowed to 1 ft. Not a ton in bloom, mainly Queen Anne and galium mollugo.", "order_surveyed": 111, "NWI_classification": "", "Notes_NWI": "" }, "geometry": { "type": "Point", "coordinates": [ -76.511776, 42.357776 ] } },
{ "type": "Feature", "properties": { "site": "Apple_4 Black Diamond", "habitat": "Apple", "Ownership": "Private", "GPS_name": "Apple4 Merwin", "date": "", "notes": "Well mowed lanes. Less than 4 inches tall. Herbicided underneath the trees, planted 1994,  overall orchard just a couple of acres", "order_surveyed": 118, "NWI_classification": "", "Notes_NWI": "" }, "geometry": { "type": "Point", "coordinates": [ -76.657705, 42.552891 ] } },
{ "type": "Feature", "properties": { "site": "Apple_5 RJO Rose Farm", "habitat": "Apple", "Ownership": "Private", "GPS_name": "Apple5 RJO Rose", "date": "", "notes": "Red jacket rose farm. Mainly grass 8\" tall, few flowering plants. Mowed once this year and sprayed under trees.", "order_surveyed": 134, "NWI_classification": "", "Notes_NWI": "" }, "geometry": { "type": "Point", "coordinates": [ -77.00429, 42.776881 ] } },
{ "type": "Feature", "properties": { "site": "Conifer_For12 Scott", "habitat": "Conifer", "Ownership": "Private", "GPS_name": "For12 SCOTT", "date": "26-MAY-16 2:32:10PM", "notes": "", "order_surveyed": 30, "NWI_classification": "", "Notes_NWI": "" }, "geometry": { "type": "Point", "coordinates": [ -76.3189607, 42.40346351 ] } },
{ "type": "Feature", "properties": { "site": "Conifer_For15 Frozenocean", "habitat": "Conifer", "Ownership": "State Forest", "GPS_name": "For15 FROZEN", "date": "27-MAY-16 4:27:08PM", "notes": "", "order_surveyed": 34, "NWI_classification": "", "Notes_NWI": "" }, "geometry": { "type": "Point", "coordinates": [ -76.41026464, 42.78671844 ] } },
{ "type": "Feature", "properties": { "site": "Conifer_For17 FLNF", "habitat": "Conifer", "Ownership": "National Forest", "GPS_name": "For17 FLNF SPC", "date": "30-MAY-16 1:28:04PM", "notes": "", "order_surveyed": 37, "NWI_classification": "", "Notes_NWI": "" }, "geometry": { "type": "Point", "coordinates": [ -76.80388354, 42.48350551 ] } },
{ "type": "Feature", "properties": { "site": "Conifer_For2 Cornell Ponds", "habitat": "Conifer", "Ownership": "Cornell Research Property", "GPS_name": "For2 CORNL PON", "date": " ", "notes": "", "order_surveyed": 17, "NWI_classification": "", "Notes_NWI": "" }, "geometry": { "type": "Point", "coordinates": [ -76.46169664, 42.50536349 ] } },
{ "type": "Feature", "properties": { "site": "Conifer_For23 Saltonstall", "habitat": "Conifer", "Ownership": "Private", "GPS_name": "For23 SALTONST", "date": "01-JUN-16 11:21:02AM", "notes": "", "order_surveyed": 43, "NWI_classification": "", "Notes_NWI": "" }, "geometry": { "type": "Point", "coordinates": [ -76.64534458, 42.63572548 ] } },
{ "type": "Feature", "properties": { "site": "Conifer_For28 Monkeyrun", "habitat": "Conifer", "Ownership": "Cornell Botanic Gardens", "GPS_name": "For28 Monkeyru", "date": "08-JUN-16 1:21:12PM", "notes": "", "order_surveyed": 49, "NWI_classification": "", "Notes_NWI": "" }, "geometry": { "type": "Point", "coordinates": [ -76.41812266, 42.4683205 ] } },
{ "type": "Feature", "properties": { "site": "Conifer_For33 Lindsay-Parsons", "habitat": "Conifer", "Ownership": "Finger Lakes Land Trust", "GPS_name": "For33 LINDSAY", "date": "15-JUN-16 2:27:33PM", "notes": "", "order_surveyed": 55, "NWI_classification": "", "Notes_NWI": "" }, "geometry": { "type": "Point", "coordinates": [ -76.50525164, 42.31957753 ] } },
{ "type": "Feature", "properties": { "site": "Conifer_For34a Danby", "habitat": "Conifer", "Ownership": "State Forest", "GPS_name": "For34a DANBY", "date": "15-JUN-16 3:57:27PM", "notes": "", "order_surveyed": 56, "NWI_classification": "", "Notes_NWI": "" }, "geometry": { "type": "Point", "coordinates": [ -76.49897865, 42.32014453 ] } },
{ "type": "Feature", "properties": { "site": "Cover_Ag13 Smith", "habitat": "Cover", "Ownership": "Private", "GPS_name": "Ag13 Smith_wheat  Agriculture ", "date": "17-MAY-16 8:47:55AM", "notes": "", "order_surveyed": 14, "NWI_classification": "", "Notes_NWI": "" }, "geometry": { "type": "Point", "coordinates": [ -76.85542048, 43.02359442 ] } },
{ "type": "Feature", "properties": { "site": "Cover_Ag15 Lott", "habitat": "Cover", "Ownership": "Private", "GPS_name": "Ag15 Lott_wheat ", "date": "17-MAY-16 2:49:25PM", "notes": "", "order_surveyed": 16, "NWI_classification": "", "Notes_NWI": "" }, "geometry": { "type": "Point", "coordinates": [ -76.78065151, 42.87728644 ] } },
{ "type": "Feature", "properties": { "site": "Cover_Ag16 pecher", "habitat": "Cover", "Ownership": "Private", "GPS_name": "Ag16 Pecher_wheat", "date": "25-MAY-16 10:47:31AM", "notes": "", "order_surveyed": 25, "NWI_classification": "", "Notes_NWI": "" }, "geometry": { "type": "Point", "coordinates": [ -76.58948259, 42.67095547 ] } },
{ "type": "Feature", "properties": { "site": "Cover_Ag6 Witmer", "habitat": "Cover", "Ownership": "Private", "GPS_name": "Ag6_Witmer_RyeCover_aprx", "date": " ", "notes": "", "order_surveyed": 7, "NWI_classification": "", "Notes_NWI": "" }, "geometry": { "type": "Point", "coordinates": [ -76.47607557, 42.90931918 ] } },
{ "type": "Feature", "properties": { "site": "Cover_Ag9 Freier", "habitat": "Cover", "Ownership": "Private", "GPS_name": "Ag9_Freier_WW", "date": " ", "notes": "", "order_surveyed": 10, "NWI_classification": "", "Notes_NWI": "" }, "geometry": { "type": "Point", "coordinates": [ -76.89652303, 42.8492796 ] } },
{ "type": "Feature", "properties": { "site": "Developed_1 Park Place", "habitat": "Developed", "Ownership": "Public Tree Lawn", "GPS_name": "Developed 1 Park", "date": "", "notes": "300 block of park place, west side of street on city easement.mostly lawn, a couple ornamental gardens", "order_surveyed": 107, "NWI_classification": "", "Notes_NWI": "" }, "geometry": { "type": "Point", "coordinates": [ -76.50593957, 42.44343483 ] } },
{ "type": "Feature", "properties": { "site": "Developed_2 Vet", "habitat": "Developed", "Ownership": "Cornell", "GPS_name": "Developed2 Vet", "date": "", "notes": "In middle of parking lot. 40% shade from trees. Recently mowed", "order_surveyed": 110, "NWI_classification": "", "Notes_NWI": "" }, "geometry": { "type": "Point", "coordinates": [ -76.46223972, 42.44661153 ] } },
{ "type": "Feature", "properties": { "site": "Developed_3 Danby", "habitat": "Developed", "Ownership": "Private", "GPS_name": "Developed3 Danby", "date": "", "notes": "Danby fire dept lawn. Mowed short and apparently regularly. Doesn't appear to be herbicided. Lots of dandelion and hawkweed and ground ivy.", "order_surveyed": 112, "NWI_classification": "", "Notes_NWI": "" }, "geometry": { "type": "Point", "coordinates": [ -76.48363095, 42.35770063 ] } },
{ "type": "Feature", "properties": { "site": "Developed_4 Sprucewood", "habitat": "Developed", "Ownership": "Private", "GPS_name": "Developed 4 Spruce wood", "date": "", "notes": "Weedy lawn, lots of dandy and other forbs. Mowed short. Lawn in between two apartment buildings. Some sidewalk passing through", "order_surveyed": 126, "NWI_classification": "", "Notes_NWI": "" }, "geometry": { "type": "Point", "coordinates": [ -76.45694733, 42.47589535 ] } },
{ "type": "Feature", "properties": { "site": "Developed_5 First Pres", "habitat": "Developed", "Ownership": "Private", "GPS_name": "Developed 5 First Presbyterian ", "date": "", "notes": "", "order_surveyed": 139, "NWI_classification": "", "Notes_NWI": "" }, "geometry": { "type": "Point", "coordinates": [ -76.616367, 42.665392 ] } },
{ "type": "Feature", "properties": { "site": "Ditch_1 Johnson St", "habitat": "Ditch", "Ownership": "Roadside ditch", "GPS_name": "", "date": "", "notes": "", "order_surveyed": 101, "NWI_classification": "", "Notes_NWI": "" }, "geometry": { "type": "Point", "coordinates": [ -76.343431, 42.500653 ] } },
{ "type": "Feature", "properties": { "site": "Ditch_2 Cornell Veg", "habitat": "Ditch", "Ownership": "Roadside ditch", "GPS_name": "", "date": "", "notes": "", "order_surveyed": 102, "NWI_classification": "", "Notes_NWI": "" }, "geometry": { "type": "Point", "coordinates": [ -76.335794, 42.521036 ] } },
{ "type": "Feature", "properties": { "site": "Ditch_3 Carmen Rd", "habitat": "Ditch", "Ownership": "Roadside ditch", "GPS_name": "Ditch 3 Carmen Rd", "date": "", "notes": "1-2ft high, lots of soncus arvensis, chicory, and birdsfoot trefoil in flower, near soybean field", "order_surveyed": 106, "NWI_classification": "", "Notes_NWI": "" }, "geometry": { "type": "Point", "coordinates": [ -76.700535, 42.463817 ] } },
{ "type": "Feature", "properties": { "site": "Ditch_4 Freese", "habitat": "Ditch", "Ownership": "Roadside ditch", "GPS_name": "Ditch 4 Freese", "date": "", "notes": "", "order_surveyed": 127, "NWI_classification": "", "Notes_NWI": "" }, "geometry": { "type": "Point", "coordinates": [ -76.444039, 42.461041 ] } },
{ "type": "Feature", "properties": { "site": "Ditch_5 Collins", "habitat": "Ditch", "Ownership": "Roadside ditch", "GPS_name": "Ditch_5 Collins_aprx", "date": "", "notes": "", "order_surveyed": 141, "NWI_classification": "", "Notes_NWI": "" }, "geometry": { "type": "Point", "coordinates": [ -76.463981, 42.52775 ] } },
{ "type": "Feature", "properties": { "site": "DryOak_For16 FLNF", "habitat": "DryOak", "Ownership": "National Forest", "GPS_name": "For16 FLNF", "date": "30-MAY-16 9:45:57AM", "notes": "", "order_surveyed": 35, "NWI_classification": "", "Notes_NWI": "" }, "geometry": { "type": "Point", "coordinates": [ -76.79101454, 42.49215951 ] } },
{ "type": "Feature", "properties": { "site": "DryOak_For38 Conn. Hill", "habitat": "DryOak", "Ownership": "State Wildlife Management Area", "GPS_name": "For38 CTHILL", "date": "22-JUN-16 11:29:59AM", "notes": "", "order_surveyed": 61, "NWI_classification": "", "Notes_NWI": "" }, "geometry": { "type": "Point", "coordinates": [ -76.69342058, 42.37659353 ] } },
{ "type": "Feature", "properties": { "site": "DryOak_For46 Eldridge", "habitat": "DryOak", "Ownership": "TNC", "GPS_name": "Forest 3", "date": "", "notes": "", "order_surveyed": 142, "NWI_classification": "", "Notes_NWI": "" }, "geometry": { "type": "Point", "coordinates": [ -76.473856, 42.399376 ] } },
{ "type": "Feature", "properties": { "site": "DryOak_For47 Baldhill", "habitat": "DryOak", "Ownership": "Cornell Botanic Gardens", "GPS_name": "Forest 4", "date": "", "notes": "", "order_surveyed": 143, "NWI_classification": "", "Notes_NWI": "" }, "geometry": { "type": "Point", "coordinates": [ -76.374924, 42.35606 ] } },
{ "type": "Feature", "properties": { "site": "DryOak_For48 Shindagin", "habitat": "DryOak", "Ownership": "State Forest", "GPS_name": "Forest 5", "date": "", "notes": "", "order_surveyed": 144, "NWI_classification": "", "Notes_NWI": "" }, "geometry": { "type": "Point", "coordinates": [ -76.360731, 42.332027 ] } },
{ "type": "Feature", "properties": { "site": "Edge_1 Mcgowan", "habitat": "Edge", "Ownership": "Cornell Botanic Gardens", "GPS_name": "Edge1 McGowan", "date": "", "notes": "", "order_surveyed": 122, "NWI_classification": "", "Notes_NWI": "" }, "geometry": { "type": "Point", "coordinates": [ -76.450254, 42.447656 ] } },
{ "type": "Feature", "properties": { "site": "Edge_2 Warren", "habitat": "Edge", "Ownership": "Cornell Botanic Gardens", "GPS_name": "Edge2 Warren", "date": "", "notes": "", "order_surveyed": 123, "NWI_classification": "", "Notes_NWI": "" }, "geometry": { "type": "Point", "coordinates": [ -76.455231, 42.464626 ] } },
{ "type": "Feature", "properties": { "site": "Edge_3 Mattoon", "habitat": "Edge", "Ownership": "Private", "GPS_name": "Edge3 Mattoon", "date": "", "notes": "Lots of goldenrod and other species along edge but they quickly drop off after about 3m. Forest relatively mature with large sugar maples and not a ton of understory. This seems to be last I should sample in woods as there are a few spp ", "order_surveyed": 133, "NWI_classification": "", "Notes_NWI": "" }, "geometry": { "type": "Point", "coordinates": [ -76.467505, 42.674232 ] } },
{ "type": "Feature", "properties": { "site": "Edge_4 Dunlop", "habitat": "Edge", "Ownership": "Cornell Botanic Gardens", "GPS_name": "Edge4 Dunlop", "date": "", "notes": "10x25 plot", "order_surveyed": 136, "NWI_classification": "", "Notes_NWI": "" }, "geometry": { "type": "Point", "coordinates": [ -76.400782, 42.388037 ] } },
{ "type": "Feature", "properties": { "site": "Edge_5 Pecher", "habitat": "Edge", "Ownership": "Private", "GPS_name": "Edge5 Pecher", "date": "", "notes": "", "order_surveyed": 138, "NWI_classification": "", "Notes_NWI": "" }, "geometry": { "type": "Point", "coordinates": [ -76.595325, 42.67207 ] } },
{ "type": "Feature", "properties": { "site": "Emer_Wet11 Conn Hill", "habitat": "Emer", "Ownership": "State Wildlife Management Area", "GPS_name": "Wet11 CONNHILL", "date": "11-JUL-16 7:30:35AM", "notes": "", "order_surveyed": 73, "NWI_classification": "Freshwater emergent wetland", "Notes_NWI": "" }, "geometry": { "type": "Point", "coordinates": [ -76.65500159, 42.37057553 ] } },
{ "type": "Feature", "properties": { "site": "Emer_Wet13 Conn. Hill", "habitat": "Emer", "Ownership": "State Wildlife Management Area", "GPS_name": "Wet13 CONNHILL", "date": "11-JUL-16 3:25:45PM", "notes": "", "order_surveyed": 75, "NWI_classification": "Freshwater emergent wetland", "Notes_NWI": "" }, "geometry": { "type": "Point", "coordinates": [ -76.71290357, 42.36142553 ] } },
{ "type": "Feature", "properties": { "site": "Emer_Wet15 Owasco flats", "habitat": "Emer", "Ownership": "Preserve (TNC?)", "GPS_name": "Wet15 OWASCA", "date": "12-JUL-16 1:32:36PM", "notes": "", "order_surveyed": 78, "NWI_classification": "Freshwater forested/shrub wetland", "Notes_NWI": "" }, "geometry": { "type": "Point", "coordinates": [ -76.46554462, 42.74943645 ] } },
{ "type": "Feature", "properties": { "site": "Emer_Wet16 Mazourek", "habitat": "Emer", "Ownership": "Private", "GPS_name": "Wet16 Mazourek", "date": "14-JUL-16 9:50:25AM", "notes": "", "order_surveyed": 80, "NWI_classification": "Freshwater emergent wetland", "Notes_NWI": "" }, "geometry": { "type": "Point", "coordinates": [ -76.6305866, 42.33664153 ] } },
{ "type": "Feature", "properties": { "site": "Emer_Wet19 Park Reserve", "habitat": "Emer", "Ownership": "Finger Lakes Land Trust", "GPS_name": "Wet19 PARKRES", "date": "19-JUL-16 4:57:25PM", "notes": "", "order_surveyed": 85, "NWI_classification": "Freshwater emergent wetland", "Notes_NWI": "" }, "geometry": { "type": "Point", "coordinates": [ -76.32160369, 42.4322665 ] } },
{ "type": "Feature", "properties": { "site": "Emer_Wet21 Wickham", "habitat": "Emer", "Ownership": "Private", "GPS_name": "", "date": "", "notes": "", "order_surveyed": 94, "NWI_classification": "Freshwater forested/shrub wetland", "Notes_NWI": "" }, "geometry": { "type": "Point", "coordinates": [ -76.743664, 42.355783 ] } },
{ "type": "Feature", "properties": { "site": "Emer_Wet22 Cayuga Lake WMA", "habitat": "Emer", "Ownership": "State Wildlife Management Area", "GPS_name": "Wet22 CAYUGWMA", "date": "11-AGO-16 10:37:58AM", "notes": "", "order_surveyed": 100, "NWI_classification": "Freshwater emergent wetland", "Notes_NWI": "" }, "geometry": { "type": "Point", "coordinates": [ -76.74335134, 42.86391808 ] } },
{ "type": "Feature", "properties": { "site": "Emer_Wet3 FLNF", "habitat": "Emer", "Ownership": "National Forest", "GPS_name": "Wet3 Flnf", "date": "30-MAY-16 12:24:27PM", "notes": "", "order_surveyed": 36, "NWI_classification": "None", "Notes_NWI": "" }, "geometry": { "type": "Point", "coordinates": [ -76.79180154, 42.48777651 ] } },
{ "type": "Feature", "properties": { "site": "Emer_Wet8 Goetchius", "habitat": "Emer", "Ownership": "Finger Lakes Land Trust", "GPS_name": "Wet8 Goetchius", "date": "05-JUL-16 2:30:30PM", "notes": "", "order_surveyed": 68, "NWI_classification": "Freshwater emergent wetland", "Notes_NWI": "" }, "geometry": { "type": "Point", "coordinates": [ -76.3013667, 42.38281851 ] } },
{ "type": "Feature", "properties": { "site": "Emer_Wet9 Ellis Wet", "habitat": "Emer", "Ownership": "Cornell Botanic Gardens", "GPS_name": "Wet9 ELLISWET", "date": "07-JUL-16 10:34:54AM", "notes": "", "order_surveyed": 71, "NWI_classification": "Freshwater forested/shrub wetland", "Notes_NWI": "" }, "geometry": { "type": "Point", "coordinates": [ -76.40270467, 42.43394351 ] } },
{ "type": "Feature", "properties": { "site": "Field_1 Power", "habitat": "Field", "Ownership": "Private (Cornell Prof)", "GPS_name": "Field1 Power", "date": "27-JUL-16 7:06:53AM", "notes": "", "order_surveyed": 89, "NWI_classification": "", "Notes_NWI": "" }, "geometry": { "type": "Point", "coordinates": [ -76.49665664, 42.34360953 ] } },
{ "type": "Feature", "properties": { "site": "Field_2 Lindsay Parsons", "habitat": "Field", "Ownership": "Finger Lakes Land Trust", "GPS_name": "Field2 LINDSAY", "date": "27-JUL-16 10:33:01AM", "notes": "", "order_surveyed": 90, "NWI_classification": "", "Notes_NWI": "" }, "geometry": { "type": "Point", "coordinates": [ -76.52116364, 42.30886553 ] } },
{ "type": "Feature", "properties": { "site": "Field_3 Lott", "habitat": "Field", "Ownership": "Private", "GPS_name": "Field3 LOTT", "date": "11-AGO-16 7:35:26AM", "notes": "", "order_surveyed": 99, "NWI_classification": "", "Notes_NWI": "" }, "geometry": { "type": "Point", "coordinates": [ -76.7717815, 42.92872645 ] } },
{ "type": "Feature", "properties": { "site": "Field_4 Jasmine", "habitat": "Field", "Ownership": "Private", "GPS_name": "Field4 Jasmine", "date": "", "notes": "Lots of goldenrod, a few honeysuckle filling in, maybe 35 percent cover. Some moist species like carex ", "order_surveyed": 104, "NWI_classification": "", "Notes_NWI": "" }, "geometry": { "type": "Point", "coordinates": [ -76.7062, 42.461523 ] } },
{ "type": "Feature", "properties": { "site": "Field_5 McDaniels", "habitat": "Field", "Ownership": "Cornell Botanic Gardens", "GPS_name": "Field5 Mcdaniels", "date": "", "notes": "Thick field, very few shrubs, maybe not mowed for a year or two. Lots of goldenrod, grass and forbs. Canada and tall golds are hammered by some bug. Shrub cover maybe1 %.", "order_surveyed": 124, "NWI_classification": "", "Notes_NWI": "" }, "geometry": { "type": "Point", "coordinates": [ -76.418753, 42.536386 ] } },
{ "type": "Feature", "properties": { "site": "Flood_1 Cuddleback", "habitat": "Flood", "Ownership": "Private", "GPS_name": "Flood1 CUDDEBK", "date": "27-MAY-16 2:32:42PM", "notes": "", "order_surveyed": 33, "NWI_classification": "", "Notes_NWI": "" }, "geometry": { "type": "Point", "coordinates": [ -76.42083563, 42.84251043 ] } },
{ "type": "Feature", "properties": { "site": "Flood_2 Salmon Creek", "habitat": "Flood", "Ownership": "Finger Lakes Land Trust", "GPS_name": "Flood2 SALMONC", "date": "12-JUL-16 7:15:05AM", "notes": "", "order_surveyed": 76, "NWI_classification": "", "Notes_NWI": "" }, "geometry": { "type": "Point", "coordinates": [ -76.53682761, 42.60506348 ] } },
{ "type": "Feature", "properties": { "site": "Flood_3 Cayuga Inlet", "habitat": "Flood", "Ownership": "Finger Lakes Land Trust", "GPS_name": "Flood3 CAYUGA", "date": "14-JUL-16 7:01:54AM", "notes": "", "order_surveyed": 79, "NWI_classification": "", "Notes_NWI": "" }, "geometry": { "type": "Point", "coordinates": [ -76.54331263, 42.39639152 ] } },
{ "type": "Feature", "properties": { "site": "Flood_4 Etna", "habitat": "Flood", "Ownership": "Finger Lakes Land Trust", "GPS_name": "Flood4ETNA", "date": "18-JUL-16 10:20:19AM", "notes": "", "order_surveyed": 82, "NWI_classification": "", "Notes_NWI": "" }, "geometry": { "type": "Point", "coordinates": [ -76.37975767, 42.48930049 ] } },
{ "type": "Feature", "properties": { "site": "Flood_5 Genung", "habitat": "Flood", "Ownership": "Finger Lakes Land Trust", "GPS_name": "Flood5 GENUNG", "date": "18-JUL-16 3:42:15PM", "notes": "", "order_surveyed": 83, "NWI_classification": "", "Notes_NWI": "" }, "geometry": { "type": "Point", "coordinates": [ -76.35104068, 42.51497749 ] } },
{ "type": "Feature", "properties": { "site": "Flood_6 Freese", "habitat": "Flood", "Ownership": "Cornell Botanic Gardens", "GPS_name": "Flood6 Freese", "date": "Elevated apprx 4 ft above river, certainly floods sometimes but not often. Thick privet and honeysuckle in parts. Relatively open understory and dense overstory.", "notes": "", "order_surveyed": 125, "NWI_classification": "", "Notes_NWI": "" }, "geometry": { "type": "Point", "coordinates": [ -76.44141197, 42.45544436 ] } },
{ "type": "Feature", "properties": { "site": "Flood_For25 Lott", "habitat": "Flood", "Ownership": "Private", "GPS_name": "For25 LOTT", "date": "03-JUN-16 12:45:00PM", "notes": "", "order_surveyed": 45, "NWI_classification": "", "Notes_NWI": "" }, "geometry": { "type": "Point", "coordinates": [ -76.77012251, 42.92932243 ] } },
{ "type": "Feature", "properties": { "site": "GrassHay_Ag20 Mattoon", "habitat": "GrassHay", "Ownership": "Private", "GPS_name": "Ag20 MATTON", "date": "10-AGO-16 11:31:49AM", "notes": "", "order_surveyed": 96, "NWI_classification": "", "Notes_NWI": "" }, "geometry": { "type": "Point", "coordinates": [ -76.46718071, 42.66953965 ] } },
{ "type": "Feature", "properties": { "site": "GrassHay_Ag21 Haines", "habitat": "GrassHay", "Ownership": "Private", "GPS_name": "Ag21 HAINES", "date": "10-AGO-16 2:20:19PM", "notes": "", "order_surveyed": 98, "NWI_classification": "", "Notes_NWI": "" }, "geometry": { "type": "Point", "coordinates": [ -76.63682506, 42.68907066 ] } },
{ "type": "Feature", "properties": { "site": "GrassHay_Ag22 Rejman", "habitat": "GrassHay", "Ownership": "Private", "GPS_name": "Ag Rejman", "date": "", "notes": "Thick grass for haylage, almost all perennial rye, they must spray a lot. Green sea. Likely cut3-4x per year. 15\" tall.", "order_surveyed": 116, "NWI_classification": "", "Notes_NWI": "" }, "geometry": { "type": "Point", "coordinates": [ -76.577969, 42.710128 ] } },
{ "type": "Feature", "properties": { "site": "MesicUpRem_For1 Mcgowan", "habitat": "MesicUpRem", "Ownership": "Cornell Botanic Gardens", "GPS_name": "For1 MCGOWAN", "date": "18-MAY-16 11:35:18AM", "notes": "", "order_surveyed": 1, "NWI_classification": "", "Notes_NWI": "" }, "geometry": { "type": "Point", "coordinates": [ -76.45043965, 42.44664651 ] } },
{ "type": "Feature", "properties": { "site": "MesicUpRem_For10 Warren", "habitat": "MesicUpRem", "Ownership": "Cornell Botanic Gardens", "GPS_name": "For10 Warren", "date": "26-MAY-16 9:17:30AM", "notes": "", "order_surveyed": 28, "NWI_classification": "", "Notes_NWI": "" }, "geometry": { "type": "Point", "coordinates": [ -76.45392765, 42.4641195 ] } },
{ "type": "Feature", "properties": { "site": "MesicUpRem_For13 Scott", "habitat": "MesicUpRem", "Ownership": "Private", "GPS_name": "For13 SCOTT", "date": "26-MAY-16 3:40:56PM", "notes": "", "order_surveyed": 31, "NWI_classification": "", "Notes_NWI": "" }, "geometry": { "type": "Point", "coordinates": [ -76.32875469, 42.40039351 ] } },
{ "type": "Feature", "properties": { "site": "MesicUpRem_For18 Freier", "habitat": "MesicUpRem", "Ownership": "Private", "GPS_name": "For18 FREIER", "date": "31-MAY-16 8:54:13AM", "notes": "", "order_surveyed": 38, "NWI_classification": "", "Notes_NWI": "" }, "geometry": { "type": "Point", "coordinates": [ -76.90088648, 42.83697745 ] } },
{ "type": "Feature", "properties": { "site": "MesicUpRem_For19 Freier", "habitat": "MesicUpRem", "Ownership": "Private", "GPS_name": "For19 FREIER", "date": "31-MAY-16 10:54:58AM", "notes": "", "order_surveyed": 39, "NWI_classification": "", "Notes_NWI": "" }, "geometry": { "type": "Point", "coordinates": [ -76.91815647, 42.82413445 ] } },
{ "type": "Feature", "properties": { "site": "MesicUpRem_For21 Shaw", "habitat": "MesicUpRem", "Ownership": "Private", "GPS_name": "For21 SHAW", "date": "01-JUN-16 7:42:09AM", "notes": "", "order_surveyed": 41, "NWI_classification": "", "Notes_NWI": "" }, "geometry": { "type": "Point", "coordinates": [ -76.60311359, 42.65397247 ] } },
{ "type": "Feature", "properties": { "site": "MesicUpRem_For22 Shaw", "habitat": "MesicUpRem", "Ownership": "Private", "GPS_name": "For22 SHAW", "date": "01-JUN-16 8:29:47AM", "notes": "", "order_surveyed": 42, "NWI_classification": "", "Notes_NWI": "" }, "geometry": { "type": "Point", "coordinates": [ -76.60630759, 42.64802347 ] } },
{ "type": "Feature", "properties": { "site": "MesicUpRem_For26 Lott", "habitat": "MesicUpRem", "Ownership": "Private", "GPS_name": "For26 LOTT", "date": "03-JUN-16 3:52:48PM", "notes": "", "order_surveyed": 46, "NWI_classification": "", "Notes_NWI": "" }, "geometry": { "type": "Point", "coordinates": [ -76.77310051, 42.92909643 ] } },
{ "type": "Feature", "properties": { "site": "MesicUpRem_For27 Monkeyrun", "habitat": "MesicUpRem", "Ownership": "Cornell Botanic Gardens", "GPS_name": "For27 MONKEYRU", "date": "08-JUN-16 7:48:38AM", "notes": "", "order_surveyed": 47, "NWI_classification": "", "Notes_NWI": "" }, "geometry": { "type": "Point", "coordinates": [ -76.44596565, 42.4663235 ] } },
{ "type": "Feature", "properties": { "site": "MesicUpRem_For29 Power", "habitat": "MesicUpRem", "Ownership": "Private", "GPS_name": "For29 POWER", "date": "09-JUN-16 8:24:03AM", "notes": "", "order_surveyed": 50, "NWI_classification": "", "Notes_NWI": "" }, "geometry": { "type": "Point", "coordinates": [ -76.50129764, 42.34170453 ] } },
{ "type": "Feature", "properties": { "site": "MesicUpRem_For3 Musgrave", "habitat": "MesicUpRem", "Ownership": "Cornell Farm", "GPS_name": "For3 MUSGRAVE", "date": "20-MAY-16 10:16:12AM", "notes": "", "order_surveyed": 18, "NWI_classification": "", "Notes_NWI": "" }, "geometry": { "type": "Point", "coordinates": [ -76.65371757, 42.72998346 ] } },
{ "type": "Feature", "properties": { "site": "MesicUpRem_For32 Lindsay-Pars", "habitat": "MesicUpRem", "Ownership": "Finger Lakes Land Trust", "GPS_name": "For32 LINDSAY", "date": "15-JUN-16 8:51:54AM", "notes": "", "order_surveyed": 54, "NWI_classification": "", "Notes_NWI": "" }, "geometry": { "type": "Point", "coordinates": [ -76.51418364, 42.31118853 ] } },
{ "type": "Feature", "properties": { "site": "MesicUpRem_For34b Arnot", "habitat": "MesicUpRem", "Ownership": "Cornell Research Property", "GPS_name": "For34b ARNOT", "date": "21-JUN-16 8:44:57AM", "notes": "", "order_surveyed": 57, "NWI_classification": "", "Notes_NWI": "" }, "geometry": { "type": "Point", "coordinates": [ -76.6416436, 42.27590454 ] } },
{ "type": "Feature", "properties": { "site": "MesicUpRem_For36 Arnot", "habitat": "MesicUpRem", "Ownership": "Cornell Research Property", "GPS_name": "For36 ARNOT", "date": "21-JUN-16 2:18:25PM", "notes": "", "order_surveyed": 59, "NWI_classification": "", "Notes_NWI": "" }, "geometry": { "type": "Point", "coordinates": [ -76.6454596, 42.26802255 ] } },
{ "type": "Feature", "properties": { "site": "MesicUpRem_For4 Musgrave", "habitat": "MesicUpRem", "Ownership": "Cornell Farm", "GPS_name": "For4 MUSGR S", "date": "20-MAY-16 1:38:40PM", "notes": "", "order_surveyed": 19, "NWI_classification": "", "Notes_NWI": "" }, "geometry": { "type": "Point", "coordinates": [ -76.65248557, 42.72224046 ] } },
{ "type": "Feature", "properties": { "site": "MesicUpRem_For40 Kunes", "habitat": "MesicUpRem", "Ownership": "Private", "GPS_name": "For40 KUNES", "date": "27-JUN-16 9:14:13AM", "notes": "", "order_surveyed": 63, "NWI_classification": "", "Notes_NWI": "" }, "geometry": { "type": "Point", "coordinates": [ -77.09308941, 42.89757845 ] } },
{ "type": "Feature", "properties": { "site": "MesicUpRem_For42 Marks", "habitat": "MesicUpRem", "Ownership": "Private (Cornell Prof)", "GPS_name": "For42 MARKS", "date": "06-JUL-16 11:17:14AM", "notes": "", "order_surveyed": 69, "NWI_classification": "", "Notes_NWI": "" }, "geometry": { "type": "Point", "coordinates": [ -76.33523169, 42.36849852 ] } },
{ "type": "Feature", "properties": { "site": "MesicUpRem_For43 Marks", "habitat": "MesicUpRem", "Ownership": "Private (Cornell Prof)", "GPS_name": "For43 MARKS", "date": "06-JUL-16 12:17:46PM", "notes": "", "order_surveyed": 70, "NWI_classification": "", "Notes_NWI": "" }, "geometry": { "type": "Point", "coordinates": [ -76.33688069, 42.36878852 ] } },
{ "type": "Feature", "properties": { "site": "MesicUpRem_For7 Jones", "habitat": "MesicUpRem", "Ownership": "Private", "GPS_name": "For7 JONES", "date": "23-MAY-16 12:07:42PM", "notes": "", "order_surveyed": 22, "NWI_classification": "", "Notes_NWI": "" }, "geometry": { "type": "Point", "coordinates": [ -76.75529654, 42.59359249 ] } },
{ "type": "Feature", "properties": { "site": "MesicUpRem_For9 Pecher", "habitat": "MesicUpRem", "Ownership": "Private", "GPS_name": "For9 PECHER", "date": "25-MAY-16 3:01:56PM", "notes": "", "order_surveyed": 27, "NWI_classification": "", "Notes_NWI": "" }, "geometry": { "type": "Point", "coordinates": [ -76.57949859, 42.66886747 ] } },
{ "type": "Feature", "properties": { "site": "MesicUpSuc_For11 Scott", "habitat": "MesicUpSuc", "Ownership": "Private", "GPS_name": "For11 SCOTT", "date": "26-MAY-16 11:18:50AM", "notes": "", "order_surveyed": 29, "NWI_classification": "", "Notes_NWI": "" }, "geometry": { "type": "Point", "coordinates": [ -76.3145547, 42.40739951 ] } },
{ "type": "Feature", "properties": { "site": "MesicUpSuc_For14 Cuddleback", "habitat": "MesicUpSuc", "Ownership": "Private", "GPS_name": "For14 CUDDEBK", "date": "27-MAY-16 12:03:03PM", "notes": "", "order_surveyed": 32, "NWI_classification": "", "Notes_NWI": "" }, "geometry": { "type": "Point", "coordinates": [ -76.42335763, 42.83883843 ] } },
{ "type": "Feature", "properties": { "site": "MesicUpSuc_For30 Power", "habitat": "MesicUpSuc", "Ownership": "Private (Cornell Prof)", "GPS_name": "For30 POWER", "date": "09-JUN-16 3:44:56PM", "notes": "", "order_surveyed": 51, "NWI_classification": "", "Notes_NWI": "" }, "geometry": { "type": "Point", "coordinates": [ -76.49841964, 42.34443153 ] } },
{ "type": "Feature", "properties": { "site": "MesicUpSuc_For35 Arnot", "habitat": "MesicUpSuc", "Ownership": "Cornell Research Property", "GPS_name": "For35 ARNOT", "date": "21-JUN-16 11:07:54AM", "notes": "", "order_surveyed": 58, "NWI_classification": "", "Notes_NWI": "" }, "geometry": { "type": "Point", "coordinates": [ -76.6581676, 42.27411755 ] } },
{ "type": "Feature", "properties": { "site": "MesicUpSuc_For37 Conn. Hill", "habitat": "MesicUpSuc", "Ownership": "State Wildlife Management Area", "GPS_name": "For37 CTHILL", "date": "22-JUN-16 9:12:33AM", "notes": "", "order_surveyed": 60, "NWI_classification": "", "Notes_NWI": "" }, "geometry": { "type": "Point", "coordinates": [ -76.67849959, 42.35664753 ] } },
{ "type": "Feature", "properties": { "site": "MesicUpSuc_For44 Bishop", "habitat": "MesicUpSuc", "Ownership": "Finger Lakes Land Trust", "GPS_name": "For44 BISHOP", "date": "25-JUL-16 2:28:08PM", "notes": "", "order_surveyed": 88, "NWI_classification": "", "Notes_NWI": "" }, "geometry": { "type": "Point", "coordinates": [ -76.93025747, 42.87515645 ] } },
{ "type": "Feature", "properties": { "site": "MesicUpSuc_For45 FLNF", "habitat": "MesicUpSuc", "Ownership": "National Forest", "GPS_name": "Forest Flnf Burnt Hill", "date": "Relatively young forest, lots of black locust, black cherry and maple. Relatively thick shrub layer but still open understory. Not many forbs, a few sedges.", "notes": "", "order_surveyed": 121, "NWI_classification": "", "Notes_NWI": "" }, "geometry": { "type": "Point", "coordinates": [ -76.81065559, 42.44290454 ] } },
{ "type": "Feature", "properties": { "site": "MesicUpSuc_For5 Manuel", "habitat": "MesicUpSuc", "Ownership": "Private", "GPS_name": "For5 MANUEL", "date": "20-MAY-16 4:23:27PM", "notes": "", "order_surveyed": 20, "NWI_classification": "", "Notes_NWI": "" }, "geometry": { "type": "Point", "coordinates": [ -76.57862559, 42.71168946 ] } },
{ "type": "Feature", "properties": { "site": "MesicUpSuc_For6 Jones", "habitat": "MesicUpSuc", "Ownership": "Private", "GPS_name": "For6 JONES", "date": "23-MAY-16 9:29:50AM", "notes": "", "order_surveyed": 21, "NWI_classification": "", "Notes_NWI": "" }, "geometry": { "type": "Point", "coordinates": [ -76.75815454, 42.59558649 ] } },
{ "type": "Feature", "properties": { "site": "MesicUpSuc_For8 Pecher", "habitat": "MesicUpSuc", "Ownership": "Private", "GPS_name": "For8 PECHER", "date": "25-MAY-16 8:30:04AM", "notes": "", "order_surveyed": 24, "NWI_classification": "", "Notes_NWI": "" }, "geometry": { "type": "Point", "coordinates": [ -76.59492659, 42.67289947 ] } },
{ "type": "Feature", "properties": { "site": "Pasture_1 Jensen", "habitat": "Pasture", "Ownership": "Private", "GPS_name": "Pasture1 JENSE", "date": "25-JUL-16 10:50:21AM", "notes": "", "order_surveyed": 86, "NWI_classification": "", "Notes_NWI": "" }, "geometry": { "type": "Point", "coordinates": [ -77.07312142, 42.83924646 ] } },
{ "type": "Feature", "properties": { "site": "Pasture_2 Wickham", "habitat": "Pasture", "Ownership": "Private", "GPS_name": "", "date": "", "notes": "", "order_surveyed": 93, "NWI_classification": "", "Notes_NWI": "" }, "geometry": { "type": "Point", "coordinates": [ -76.755228, 42.350433 ] } },
{ "type": "Feature", "properties": { "site": "Pasture_3 Haines", "habitat": "Pasture", "Ownership": "Private", "GPS_name": "Pastur3 HAineS", "date": "10-AGO-16 12:44:00PM", "notes": "", "order_surveyed": 97, "NWI_classification": "", "Notes_NWI": "" }, "geometry": { "type": "Point", "coordinates": [ -76.625985, 42.69120854 ] } },
{ "type": "Feature", "properties": { "site": "Pasture_4 Sherman", "habitat": "Pasture", "Ownership": "Private", "GPS_name": "Pasture4 SHERM", "date": "15-AGO-16 4:01:24PM", "notes": "", "order_surveyed": 103, "NWI_classification": "", "Notes_NWI": "" }, "geometry": { "type": "Point", "coordinates": [ -76.33611054, 42.52055174 ] } },
{ "type": "Feature", "properties": { "site": "Pasture_5 Cornell Equine", "habitat": "Pasture", "Ownership": "Cornell Farm", "GPS_name": "Pasture5 Cornell Equine", "date": "", "notes": "", "order_surveyed": 140, "NWI_classification": "", "Notes_NWI": "" }, "geometry": { "type": "Point", "coordinates": [ -76.459007, 42.46013 ] } },
{ "type": "Feature", "properties": { "site": "Shrub_Wet10 Ellis Wet", "habitat": "Shrub", "Ownership": "Cornell Botanic Gardens", "GPS_name": "Wet10 ELLISWET", "date": "07-JUL-16 2:39:14PM", "notes": "", "order_surveyed": 72, "NWI_classification": "Freshwater emergent wetland", "Notes_NWI": "" }, "geometry": { "type": "Point", "coordinates": [ -76.40125367, 42.43658951 ] } },
{ "type": "Feature", "properties": { "site": "Shrub_Wet12 Conn. Hill", "habitat": "Shrub", "Ownership": "State Wildlife Management Area", "GPS_name": "Wet12 CONNHILL", "date": "11-JUL-16 10:39:23AM", "notes": "", "order_surveyed": 74, "NWI_classification": "None", "Notes_NWI": "close to Freshwater forested wetland" }, "geometry": { "type": "Point", "coordinates": [ -76.68442858, 42.35347453 ] } },
{ "type": "Feature", "properties": { "site": "Shrub_Wet18 Payne", "habitat": "Shrub", "Ownership": "Private", "GPS_name": "Wet18 PAYNE", "date": "19-JUL-16 8:07:53AM", "notes": "", "order_surveyed": 84, "NWI_classification": "Freshwater emergent wetland", "Notes_NWI": "" }, "geometry": { "type": "Point", "coordinates": [ -76.38527767, 42.42346151 ] } },
{ "type": "Feature", "properties": { "site": "Shrub_Wet20 Lindsay Parsons", "habitat": "Shrub", "Ownership": "Finger Lakes Land Trust", "GPS_name": "Wet20 LINDSAY", "date": "27-JUL-16 12:56:04PM", "notes": "", "order_surveyed": 91, "NWI_classification": "Freshwater forested/shrub wetland", "Notes_NWI": "" }, "geometry": { "type": "Point", "coordinates": [ -76.51442064, 42.30667853 ] } },
{ "type": "Feature", "properties": { "site": "Shrub_Wet7 Power", "habitat": "Shrub", "Ownership": "Private", "GPS_name": "Wet7 POWER", "date": "28-JUN-16 7:32:46AM", "notes": "", "order_surveyed": 66, "NWI_classification": "None", "Notes_NWI": "" }, "geometry": { "type": "Point", "coordinates": [ -76.49439065, 42.34449553 ] } },
{ "type": "Feature", "properties": { "site": "Shrubland_1 Ellis Hollow", "habitat": "Shrubland", "Ownership": "Finger Lakes Land Trust", "GPS_name": "Shrub1 ELLIS", "date": "05-JUL-16 12:33:06PM", "notes": "", "order_surveyed": 67, "NWI_classification": "", "Notes_NWI": "" }, "geometry": { "type": "Point", "coordinates": [ -76.40995867, 42.4420675 ] } },
{ "type": "Feature", "properties": { "site": "Shrubland_2 Jasmine", "habitat": "Shrubland", "Ownership": "Private", "GPS_name": "Shrub 2 Jasmine", "date": "", "notes": "Thick shrub, honeysuckle and privet, near impenetrable", "order_surveyed": 105, "NWI_classification": "", "Notes_NWI": "" }, "geometry": { "type": "Point", "coordinates": [ -76.705651, 42.460727 ] } },
{ "type": "Feature", "properties": { "site": "Shrubland_3 Long Pt State Park", "habitat": "Shrubland", "Ownership": "State park", "GPS_name": "Shrubland3 Longpoint ", "date": "", "notes": "105 degree angle. Thick shrub land, 20-25 yrs ago cut all large trees. Before that was field. Recovering old field. Tons of poison ivy. Understory thick but little leaf litter. Interesting mix of interesting natives like smooth aster and invasive species from old field. Trees are buckthorn, gray dogwood, red cedar, pear. Dry but with bad drainage, so we see some wet species.", "order_surveyed": 115, "NWI_classification": "", "Notes_NWI": "" }, "geometry": { "type": "Point", "coordinates": [ -76.702337, 42.717002 ] } },
{ "type": "Feature", "properties": { "site": "Shrubland_4 Blueheron", "habitat": "Shrubland", "Ownership": "Private", "GPS_name": "Shrub4 Blueheron", "date": "", "notes": "Walnut overstory, old pasture, thick successional shrub layer but with a lot of tall forbs. Not impenetrable thicket. Lots of ageratina altissima, hesperis, cryptotaenia can, va creeper.", "order_surveyed": 120, "NWI_classification": "", "Notes_NWI": "" }, "geometry": { "type": "Point", "coordinates": [ -76.857388, 42.602858 ] } },
{ "type": "Feature", "properties": { "site": "Shrubland_5 West Haven", "habitat": "Shrubland", "Ownership": "Private", "GPS_name": "Shrub5 Westhaven", "date": "", "notes": "", "order_surveyed": 128, "NWI_classification": "", "Notes_NWI": "" }, "geometry": { "type": "Point", "coordinates": [ -76.53986, 42.446135 ] } },
{ "type": "Feature", "properties": { "site": "Swamp_For20 Freier", "habitat": "Swamp", "Ownership": "Private", "GPS_name": "For20 FREIER", "date": "31-MAY-16 2:01:58PM", "notes": "", "order_surveyed": 40, "NWI_classification": "Freshwater forested/shrub wetland", "Notes_NWI": "" }, "geometry": { "type": "Point", "coordinates": [ -76.90965148, 42.81455546 ] } },
{ "type": "Feature", "properties": { "site": "Swamp_For24 Lott", "habitat": "Swamp", "Ownership": "Private", "GPS_name": "for24 LOTT", "date": "03-JUN-16 9:09:42AM", "notes": "", "order_surveyed": 44, "NWI_classification": "None", "Notes_NWI": "" }, "geometry": { "type": "Point", "coordinates": [ -76.77541351, 42.88580344 ] } },
{ "type": "Feature", "properties": { "site": "Swamp_For31 Haines", "habitat": "Swamp", "Ownership": "Private", "GPS_name": "For31 HAINES", "date": "13-JUN-16 1:48:27PM", "notes": "", "order_surveyed": 53, "NWI_classification": "None", "Notes_NWI": "but very close to freshwater forested wetland" }, "geometry": { "type": "Point", "coordinates": [ -76.64683657, 42.69088847 ] } },
{ "type": "Feature", "properties": { "site": "Swamp_For39 Conn. Hill", "habitat": "Swamp", "Ownership": "State Wildlife Management Area", "GPS_name": "For39 CTHILL", "date": "22-JUN-16 3:56:28PM", "notes": "", "order_surveyed": 62, "NWI_classification": "None", "Notes_NWI": "" }, "geometry": { "type": "Point", "coordinates": [ -76.68837658, 42.37451353 ] } },
{ "type": "Feature", "properties": { "site": "Swamp_For41 Kunes", "habitat": "Swamp", "Ownership": "Private", "GPS_name": "For41 KUNES", "date": "27-JUN-16 10:59:08AM", "notes": "", "order_surveyed": 64, "NWI_classification": "Freshwater forested/shrub wetland", "Notes_NWI": "" }, "geometry": { "type": "Point", "coordinates": [ -77.05648843, 42.86686445 ] } },
{ "type": "Feature", "properties": { "site": "Swamp_Wet1 Jones", "habitat": "Swamp", "Ownership": "Private", "GPS_name": "Wet1 JONES", "date": "23-MAY-16 2:18:51PM", "notes": "", "order_surveyed": 23, "NWI_classification": "Freshwater forested/shrub wetland", "Notes_NWI": "" }, "geometry": { "type": "Point", "coordinates": [ -76.75464854, 42.59378149 ] } },
{ "type": "Feature", "properties": { "site": "Swamp_Wet14 Owasco flats", "habitat": "Swamp", "Ownership": "Preserve (TNC?)", "GPS_name": "wet14 owasco", "date": "12-JUL-16 11:35:11AM", "notes": "", "order_surveyed": 77, "NWI_classification": "Freshwater forested/shrub wetland", "Notes_NWI": "" }, "geometry": { "type": "Point", "coordinates": [ -76.46556162, 42.74851845 ] } },
{ "type": "Feature", "properties": { "site": "Swamp_Wet17 McDaniels", "habitat": "Swamp", "Ownership": "Cornell Botanic Gardens", "GPS_name": "Wet17 MCDANIEL", "date": "18-JUL-16 8:23:28AM", "notes": "", "order_surveyed": 81, "NWI_classification": "None", "Notes_NWI": "" }, "geometry": { "type": "Point", "coordinates": [ -76.41670866, 42.53442449 ] } },
{ "type": "Feature", "properties": { "site": "Swamp_Wet2 Pecher", "habitat": "Swamp", "Ownership": "Private", "GPS_name": "Wet2 PECHER", "date": "25-MAY-16 12:23:38PM", "notes": "", "order_surveyed": 26, "NWI_classification": "Freshwater forested/shrub wetland", "Notes_NWI": "" }, "geometry": { "type": "Point", "coordinates": [ -76.59025359, 42.67092747 ] } },
{ "type": "Feature", "properties": { "site": "Swamp_Wet4 Monkeyrun", "habitat": "Swamp", "Ownership": "Cornell Botanic Gardens", "GPS_name": "Wet4 MONKEYRUN", "date": "08-JUN-16 11:29:43AM", "notes": "", "order_surveyed": 48, "NWI_classification": "None", "Notes_NWI": "" }, "geometry": { "type": "Point", "coordinates": [ -76.44356965, 42.4662515 ] } },
{ "type": "Feature", "properties": { "site": "Swamp_Wet5 Haines", "habitat": "Swamp", "Ownership": "Private", "GPS_name": "Wet5 HAINES", "date": "13-JUN-16 12:15:09PM", "notes": "", "order_surveyed": 52, "NWI_classification": "Freshwater forested/shrub wetland", "Notes_NWI": "" }, "geometry": { "type": "Point", "coordinates": [ -76.64754957, 42.68989847 ] } },
{ "type": "Feature", "properties": { "site": "Swamp_Wet6 Jensen", "habitat": "Swamp", "Ownership": "Private", "GPS_name": "Wet6 JENSEN", "date": "27-JUN-16 1:05:06PM", "notes": "", "order_surveyed": 65, "NWI_classification": "Freshwater forested/shrub wetland", "Notes_NWI": "located close to this habitat but not in it" }, "geometry": { "type": "Point", "coordinates": [ -77.08135542, 42.83811946 ] } },
{ "type": "Feature", "properties": { "site": "Treerow_1 Case", "habitat": "Treerow", "Ownership": "Private", "GPS_name": "Hedgerow1 Case", "date": "", "notes": "Thick shrubs, trees, and forbs. Lots of rocks and logs piled in. Dry, so many plants senesced already. Lots of goldenrod on edges. About 8 to 10 m wide, I measured 5 m wide from east side.50 m long. Did not leave flags but sw corner is start of shrubs north of small gap in treeline", "order_surveyed": 130, "NWI_classification": "", "Notes_NWI": "" }, "geometry": { "type": "Point", "coordinates": [ -76.88344, 42.792377 ] } },
{ "type": "Feature", "properties": { "site": "Treerow_2 RJO rose", "habitat": "Treerow", "Ownership": "Private", "GPS_name": "Hedgerow2 RJO Rose", "date": "", "notes": "Hedgerow in between orchards. 9-10m wide. Lots of buckthorn and alder. Gulley in middle with few plants. Edges with lots of grass, not a ton of forbs but some panicled aster and tall gold. Left flags", "order_surveyed": 131, "NWI_classification": "", "Notes_NWI": "" }, "geometry": { "type": "Point", "coordinates": [ -77.003431, 42.776062 ] } },
{ "type": "Feature", "properties": { "site": "Treerow_3 Matton", "habitat": "Treerow", "Ownership": "Private", "GPS_name": "Hedgerow3 Mattoon", "date": "", "notes": "11-12m wide between alfalfa and corn. Thick on both sides, a little more open in middle. Conspicuously lots of bird-dispersed trees, like all the prunus spp. Lots of buckthorn and multiflora. Does not appear to be a remnant hedgerow, not many forest understory herbs. Lots of goldenrod on edges.", "order_surveyed": 132, "NWI_classification": "", "Notes_NWI": "" }, "geometry": { "type": "Point", "coordinates": [ -76.469221, 42.671393 ] } },
{ "type": "Feature", "properties": { "site": "Treerow_4 Dunlop", "habitat": "Treerow", "Ownership": "Cornell Botanic Gardens", "GPS_name": "Hedgerow4 Dunlop", "date": "", "notes": "5x50 plot", "order_surveyed": 135, "NWI_classification": "", "Notes_NWI": "" }, "geometry": { "type": "Point", "coordinates": [ -76.398931, 42.386123 ] } },
{ "type": "Feature", "properties": { "site": "Treerow_5 Pecher", "habitat": "Treerow", "Ownership": "Private", "GPS_name": "Hedgerow5 Pecher", "date": "", "notes": "5x50", "order_surveyed": 137, "NWI_classification": "", "Notes_NWI": "" }, "geometry": { "type": "Point", "coordinates": [ -76.598048, 42.670279 ] } },
{ "type": "Feature", "properties": { "site": "Veg_1 Church Creek Farms", "habitat": "Veg", "Ownership": "Private", "GPS_name": "Vegetable1 Church", "date": "Small vegetable farm, 100m transect plot crossed raspberries, mowed bean field, grass, and mixed vegetable plot. Lots of tall weeds except where mowed.", "notes": "", "order_surveyed": 113, "NWI_classification": "", "Notes_NWI": "" }, "geometry": { "type": "Point", "coordinates": [ -76.84258461, 42.41635997 ] } },
{ "type": "Feature", "properties": { "site": "Veg_2 Plowbreak", "habitat": "Veg", "Ownership": "Private", "GPS_name": "Vegetable2 Plowbreak", "date": "", "notes": "Transect went across several crops. Large squash fields, only small parch of recently plowed ground. 15m of grass path. Farm has 5 acres in production but 20 total", "order_surveyed": 114, "NWI_classification": "", "Notes_NWI": "" }, "geometry": { "type": "Point", "coordinates": [ -76.839151, 42.451708 ] } },
{ "type": "Feature", "properties": { "site": "Veg_3 Silverqueen", "habitat": "Veg", "Ownership": "Private", "GPS_name": "Vegetable3 Silverqueen", "date": "", "notes": "", "order_surveyed": 117, "NWI_classification": "", "Notes_NWI": "" }, "geometry": { "type": "Point", "coordinates": [ -76.727314, 42.489884 ] } },
{ "type": "Feature", "properties": { "site": "Veg_4 Blueheron", "habitat": "Veg", "Ownership": "Private", "GPS_name": "Vegetable4 Blueheron", "date": "", "notes": "Well maintained farm, very few weeds in crops. Most of diversity comes from grass strips in between crops. About fifty percent of area is crop and rest grass strips. Strips mowed low, 6-8\". Plot runs100m straight east-west, with origin on east side. Organic.", "order_surveyed": 119, "NWI_classification": "", "Notes_NWI": "" }, "geometry": { "type": "Point", "coordinates": [ -76.858377, 42.603831 ] } },
{ "type": "Feature", "properties": { "site": "Veg_5 West Haven", "habitat": "Veg", "Ownership": "Private", "GPS_name": "Vegetable5 West Haven", "date": "", "notes": "", "order_surveyed": 129, "NWI_classification": "", "Notes_NWI": "" }, "geometry": { "type": "Point", "coordinates": [ -76.536341, 42.444235 ] } },
{ "type": "Feature", "properties": { "site": "WinterFallow_Ag1 Mattoon", "habitat": "WinterFallow", "Ownership": "Private", "GPS_name": "Ag1_Mattoon_corn_aprx", "date": " ", "notes": "", "order_surveyed": 2, "NWI_classification": "", "Notes_NWI": "" }, "geometry": { "type": "Point", "coordinates": [ -76.48859126, 42.67184726 ] } },
{ "type": "Feature", "properties": { "site": "WinterFallow_Ag10 Case", "habitat": "WinterFallow", "Ownership": "Private", "GPS_name": "Ag10_Case_corn_aprx", "date": " ", "notes": "", "order_surveyed": 11, "NWI_classification": "", "Notes_NWI": "" }, "geometry": { "type": "Point", "coordinates": [ -76.8726165, 42.79185389 ] } },
{ "type": "Feature", "properties": { "site": "WinterFallow_Ag11 Jones", "habitat": "WinterFallow", "Ownership": "Private", "GPS_name": "Ag11 Jones_corn", "date": "13-MAY-16 3:03:52PM", "notes": "", "order_surveyed": 12, "NWI_classification": "", "Notes_NWI": "" }, "geometry": { "type": "Point", "coordinates": [ -76.76415954, 42.61748249 ] } },
{ "type": "Feature", "properties": { "site": "WinterFallow_Ag12 Cuddleback", "habitat": "WinterFallow", "Ownership": "Private", "GPS_name": "Ag12 Cuddeback_corn", "date": "16-MAY-16 1:55:36PM", "notes": "", "order_surveyed": 13, "NWI_classification": "", "Notes_NWI": "" }, "geometry": { "type": "Point", "coordinates": [ -76.42324363, 42.84961943 ] } },
{ "type": "Feature", "properties": { "site": "WinterFallow_Ag14 Smith", "habitat": "WinterFallow", "Ownership": "Private", "GPS_name": "Ag14 Smith_corn", "date": "17-MAY-16 12:12:40PM", "notes": "", "order_surveyed": 15, "NWI_classification": "", "Notes_NWI": "" }, "geometry": { "type": "Point", "coordinates": [ -76.93902445, 43.01661142 ] } },
{ "type": "Feature", "properties": { "site": "WinterFallow_Ag2 Mt. Pleasant", "habitat": "WinterFallow", "Ownership": "Cornell Botanic Gardens", "GPS_name": "Ag2_MtPleasant_wheatstub_aprx", "date": " ", "notes": "", "order_surveyed": 3, "NWI_classification": "", "Notes_NWI": "" }, "geometry": { "type": "Point", "coordinates": [ -76.38684503, 42.45813747 ] } },
{ "type": "Feature", "properties": { "site": "WinterFallow_Ag3 Mekeel", "habitat": "WinterFallow", "Ownership": "Private", "GPS_name": "Ag3_Mekeel_corn_aprx", "date": " ", "notes": "", "order_surveyed": 4, "NWI_classification": "", "Notes_NWI": "" }, "geometry": { "type": "Point", "coordinates": [ -76.63449573, 42.50173871 ] } },
{ "type": "Feature", "properties": { "site": "WinterFallow_Ag4 Carpenter", "habitat": "WinterFallow", "Ownership": "Private", "GPS_name": "Ag4_Carpenter_Soy_aprx", "date": " ", "notes": "", "order_surveyed": 5, "NWI_classification": "", "Notes_NWI": "" }, "geometry": { "type": "Point", "coordinates": [ -76.32476975, 42.48231694 ] } },
{ "type": "Feature", "properties": { "site": "WinterFallow_Ag5 Witmer", "habitat": "WinterFallow", "Ownership": "Private", "GPS_name": "Ag5_Witmer_Soy_aprx", "date": " ", "notes": "", "order_surveyed": 6, "NWI_classification": "", "Notes_NWI": "" }, "geometry": { "type": "Point", "coordinates": [ -76.48674265, 42.91669517 ] } },
{ "type": "Feature", "properties": { "site": "WinterFallow_Ag7 Musgrave", "habitat": "WinterFallow", "Ownership": "Cornell Farm", "GPS_name": "Ag7_Musgrave_Soy_aprx", "date": " ", "notes": "", "order_surveyed": 8, "NWI_classification": "", "Notes_NWI": "" }, "geometry": { "type": "Point", "coordinates": [ -76.66583001, 42.72312952 ] } },
{ "type": "Feature", "properties": { "site": "WinterFallow_Ag8 Freier", "habitat": "WinterFallow", "Ownership": "Private", "GPS_name": "Ag8_Freier_soy_aprx", "date": " ", "notes": "", "order_surveyed": 9, "NWI_classification": "", "Notes_NWI": "" }, "geometry": { "type": "Point", "coordinates": [ -76.91159328, 42.85834427 ] } }
]
}
